1 41861U 16069C   17346.65796033  .00000078  00000-0  00000+0 0  9996
2 41861  54.5763 187.3803 0001471 245.1903 114.8624  1.70473500  6660
